NORAD_CAT_ID,OBJECT_NAME,OBJECT_TYPE,EPOCH,MEAN_MOTION,ECCENTRICITY,INCLINATION,RA_OF_ASC_NODE,ARG_OF_PERICENTER,MEAN_ANOMALY,BSTAR,MEAN_MOTION_DOT,MEAN_MOTION_DDOT,TLE_LINE0,TLE_LINE1,TLE_LINE2,SEMIMAJOR_AXIS,PERIOD,APOGEE,PERIGEE,DECAYED
52631.0,STARLINK-3794,PAYLOAD,2023-03-03 11:21:46,15.08915448,0.0001341,53.2144,177.1675,37.8638,322.2448,0.0028745,0.00045852,0.0,0 STARLINK-3794,1 52631U 22052AK  23062.47345269  .00045852  00000-0  28745-2 0  9993,2 52631  53.2144 177.1675 0001341  37.8638 322.2448 15.08915448 44600,6917.65,95.433,540.442,538.587,0.0
52631.0,STARLINK-3794,PAYLOAD,2023-03-03 19:18:39,15.0895133,0.0001326,53.2144,175.6726,102.7083,257.4058,0.0028397,0.00045335,0.0,0 STARLINK-3794,1 52631U 22052AK  23062.80462776  .00045335  00000-0  28397-2 0  9992,2 52631  53.2144 175.6726 0001326 102.7083 257.4058 15.08951330 44650,6917.54,95.431,540.322,538.488,0.0
52631.0,STARLINK-3794,PAYLOAD,2023-03-04 00:04:48,15.08872843,0.0001881,53.2157,174.7849,178.4552,181.6447,-0.0043215,-0.00068474,0.0,0 STARLINK-3794,1 52631U 22052AK  23063.00334082 -.00068474  00000-0 -43215-2 0  9990,2 52631  53.2157 174.7849 0001881 178.4552 181.6447 15.08872843 45053,6917.78,95.435,540.946,538.344,0.0
52631.0,STARLINK-3794,PAYLOAD,2023-03-04 09:37:08,15.08854175,0.000121,53.2144,172.9996,103.9072,256.2054,0.001179,0.00018533,0.0,0 STARLINK-3794,1 52631U 22052AK  23063.40079020  .00018533  00000-0  11790-2 0  9994,2 52631  53.2144 172.9996 0001210 103.9072 256.2054 15.08854175 45116,6917.837,95.437,540.539,538.865,0.0
52631.0,STARLINK-3794,PAYLOAD,2023-03-04 11:12:31,15.08859127,0.0001421,53.2142,172.7021,99.1184,260.9969,0.0024434,0.00038834,0.0,0 STARLINK-3794,1 52631U 22052AK  23063.46703127  .00038834  00000-0  24434-2 0  9997,2 52631  53.2142 172.7021 0001421  99.1184 260.9969 15.08859127 44753,6917.822,95.436,540.67,538.704,0.0
52631.0,STARLINK-3794,PAYLOAD,2023-03-04 15:58:40,15.08880118,0.0001601,53.2145,171.8102,95.7556,264.3618,0.0032766,0.00052304,0.0,0 STARLINK-3794,1 52631U 22052AK  23063.66574829  .00052304  00000-0  32766-2 0  9999,2 52631  53.2145 171.8102 0001601  95.7556 264.3618 15.08880118 45159,6917.758,95.435,540.73,538.515,0.0
52631.0,STARLINK-3794,PAYLOAD,2023-03-04 23:55:36,15.08857363,0.0001882,53.215,170.3199,75.917,284.2031,0.001133,0.00017798,0.0,0 STARLINK-3794,1 52631U 22052AK  23063.99695132  .00017798  00000-0  11330-2 0  9998,2 52631  53.2150 170.3199 0001882  75.9170 284.2031 15.08857363 45200,6917.827,95.436,540.994,538.39,0.0
52631.0,STARLINK-3794,PAYLOAD,2023-03-05 23:46:26,15.08852745,0.0002517,53.214,165.8639,78.3898,281.7376,0.0036028,0.00057541,0.0,0 STARLINK-3794,1 52631U 22052AK  23064.99058055  .00057541  00000-0  36028-2 0  9997,2 52631  53.2140 165.8639 0002517  78.3898 281.7376 15.08852745 45356,6917.841,95.437,541.448,537.965,0.0
52631.0,STARLINK-3794,PAYLOAD,2023-03-06 10:54:07,15.08853005,0.0001558,53.2159,163.7847,81.8495,278.2674,0.0018391,0.00029113,0.0,0 STARLINK-3794,1 52631U 22052AK  23065.45425547  .00029113  00000-0  18391-2 0  9990,2 52631  53.2159 163.7847 0001558  81.8495 278.2674 15.08853005 45420,6917.841,95.437,540.783,538.628,0.0
52631.0,STARLINK-3794,PAYLOAD,2023-03-06 15:40:16,15.08877533,0.0001738,53.2144,162.8908,81.449,278.6699,0.0025727,0.00040937,0.0,0 STARLINK-3794,1 52631U 22052AK  23065.65297077  .00040937  00000-0  25727-2 0  9995,2 52631  53.2144 162.8908 0001738  81.4490 278.6699 15.08877533 45459,6917.766,95.435,540.833,538.428,0.0
52631.0,STARLINK-3794,PAYLOAD,2023-03-07 05:58:45,15.08845332,0.0001734,53.214,160.2156,105.8151,254.3033,0.00094097,0.00014721,0.0,0 STARLINK-3794,1 52631U 22052AK  23066.24913507  .00014721  00000-0  94097-3 0  9993,2 52631  53.2140 160.2156 0001734 105.8151 254.3033 15.08845332 45548,6917.864,95.437,540.929,538.53,0.0
52631.0,STARLINK-3794,PAYLOAD,2023-03-07 15:31:04,15.0884629,0.0001397,53.2128,158.4299,93.0564,267.0588,0.0017258,0.0002729,0.0,0 STARLINK-3794,1 52631U 22052AK  23066.64657927  .00027290  00000-0  17258-2 0  9996,2 52631  53.2128 158.4299 0001397  93.0564 267.0588 15.08846290 45609,6917.861,95.437,540.693,538.76,0.0
52631.0,STARLINK-3794,PAYLOAD,2023-03-07 23:28:00,15.08833318,7.59e-05,53.2145,156.9444,115.9134,244.1936,0.0023977,0.00038071,0.0,0 STARLINK-3794,1 52631U 22052AK  23066.97777949  .00038071  00000-0  23977-2 0  9993,2 52631  53.2145 156.9444 0000759 115.9134 244.1936 15.08833318 45656,6917.901,95.438,540.291,539.241,0.0
52631.0,STARLINK-3794,PAYLOAD,2023-03-08 15:21:51,15.08866154,0.0001885,53.2149,153.9676,108.9098,251.2098,0.0021175,0.00033597,0.0,0 STARLINK-3794,1 52631U 22052AK  23067.64018083  .00033597  00000-0  21175-2 0  9991,2 52631  53.2149 153.9676 0001885 108.9098 251.2098 15.08866154 45759,6917.8,95.436,540.969,538.361,0.0
52631.0,STARLINK-3794,PAYLOAD,2023-03-08 23:18:47,15.08851048,0.0001815,53.2151,152.4823,91.3502,268.7698,0.0019861,0.00031472,0.0,0 STARLINK-3794,1 52631U 22052AK  23067.97138539  .00031472  00000-0  19861-2 0  9995,2 52631  53.2151 152.4823 0001815  91.3502 268.7698 15.08851048 45809,6917.847,95.437,540.967,538.456,0.0
52631.0,STARLINK-3794,PAYLOAD,2023-03-09 12:01:52,15.08864874,0.0001443,53.2154,150.1016,101.9162,258.1992,0.0018493,0.00029286,0.0,0 STARLINK-3794,1 52631U 22052AK  23068.50129831  .00029286  00000-0  18493-2 0  9990,2 52631  53.2154 150.1016 0001443 101.9162 258.1992 15.08864874 45887,6917.804,95.436,540.668,538.671,0.0
52631.0,STARLINK-3794,PAYLOAD,2023-03-10 10:17:16,15.08856616,0.0001851,53.2148,145.9383,138.9617,221.1515,0.0017041,0.00026949,0.0,0 STARLINK-3794,1 52631U 22052AK  23069.42865935  .00026949  00000-0  17041-2 0  9995,2 52631  53.2148 145.9383 0001851 138.9617 221.1515 15.08856616 46020,6917.83,95.437,540.975,538.414,0.0
52631.0,STARLINK-3794,PAYLOAD,2023-03-10 21:24:58,15.0884253,0.0001373,53.2147,143.8578,122.2838,237.8287,0.00099558,0.00015593,0.0,0 STARLINK-3794,1 52631U 22052AK  23069.89234250  .00015593  00000-0  99558-3 0  9993,2 52631  53.2147 143.8578 0001373 122.2838 237.8287 15.08842530 45728,6917.873,95.437,540.687,538.788,0.0
52631.0,STARLINK-3794,PAYLOAD,2023-03-11 10:08:02,15.088689,0.0001361,53.215,141.479,111.5954,248.5183,0.0015563,0.00024587,0.0,0 STARLINK-3794,1 52631U 22052AK  23070.42225644  .00024587  00000-0  15563-2 0  9997,2 52631  53.2150 141.4790 0001361 111.5954 248.5183 15.08868900 45801,6917.792,95.436,540.599,538.716,0.0
52631.0,STARLINK-3794,PAYLOAD,2023-03-11 16:29:34,15.0889842,0.0001491,53.2148,140.2886,120.7268,239.3872,0.0022189,0.00035259,0.0,0 STARLINK-3794,1 52631U 22052AK  23070.68720599  .00035259  00000-0  22189-2 0  9994,2 52631  53.2148 140.2886 0001491 120.7268 239.3872 15.08898420 46214,6917.702,95.434,540.598,538.535,0.0
52631.0,STARLINK-3794,PAYLOAD,2023-03-12 16:20:22,15.08848017,0.0001366,53.2139,135.829,130.0518,230.0594,0.0020623,0.00032693,0.0,0 STARLINK-3794,1 52631U 22052AK  23071.68081788  .00032693  00000-0  20623-2 0  9995,2 52631  53.2139 135.8290 0001366 130.0518 230.0594 15.08848017 46368,6917.856,95.437,540.666,538.776,0.0
52631.0,STARLINK-3794,PAYLOAD,2023-03-13 05:03:28,15.08824962,0.000121,53.2142,133.4485,81.5208,278.5921,0.0031714,0.00050526,0.0,0 STARLINK-3794,1 52631U 22052AK  23072.21075058  .00050526  00000-0  31714-2 0  9996,2 52631  53.2142 133.4485 0001210  81.5208 278.5921 15.08824962 46449,6917.926,95.439,540.628,538.954,0.0
52631.0,STARLINK-3794,PAYLOAD,2023-03-14 09:40:25,15.08845364,0.0001203,53.2129,128.0972,80.4197,279.6931,0.0012885,0.00020281,0.0,0 STARLINK-3794,1 52631U 22052AK  23073.40306969  .00020281  00000-0  12885-2 0  9999,2 52631  53.2129 128.0972 0001203  80.4197 279.6931 15.08845364 46624,6917.864,95.437,540.561,538.897,0.0
52631.0,STARLINK-3794,PAYLOAD,2023-03-14 11:15:48,15.08848671,0.000128,53.2136,127.8005,78.7174,281.3962,0.0010356,0.00016236,0.0,0 STARLINK-3794,1 52631U 22052AK  23073.46930958  .00016236  00000-0  10356-2 0  9992,2 52631  53.2136 127.8005 0001280  78.7174 281.3962 15.08848671 46264,6917.854,95.437,540.604,538.833,0.0
52631.0,STARLINK-3794,PAYLOAD,2023-03-14 20:48:07,15.08838049,0.0001467,53.2144,126.017,71.1838,288.9313,0.0011984,0.00018835,0.0,0 STARLINK-3794,1 52631U 22052AK  23073.86674824  .00018835  00000-0  11984-2 0  9998,2 52631  53.2144 126.0170 0001467  71.1838 288.9313 15.08838049 46326,6917.886,95.438,540.766,538.736,0.0
52631.0,STARLINK-3794,PAYLOAD,2023-03-15 03:09:39,15.08857297,0.0001576,53.2141,124.8277,64.4451,295.6703,0.00068349,0.00010612,0.0,0 STARLINK-3794,1 52631U 22052AK  23074.13170683  .00010612  00000-0  68349-3 0  9996,2 52631  53.2141 124.8277 0001576  64.4451 295.6703 15.08857297 46733,6917.828,95.436,540.783,538.602,0.0
52631.0,STARLINK-3794,PAYLOAD,2023-03-15 12:41:57,15.08879579,0.0001561,53.2137,123.0407,79.3321,280.7847,0.001325,0.00020885,0.0,0 STARLINK-3794,1 52631U 22052AK  23074.52913765  .00020885  00000-0  13250-2 0  9998,2 52631  53.2137 123.0407 0001561  79.3321 280.7847 15.08879579 46426,6917.759,95.435,540.704,538.545,0.0
52631.0,STARLINK-3794,PAYLOAD,2023-03-15 20:38:53,15.08851533,0.0001963,53.2141,121.5556,74.4469,285.6739,6.9005e-05,8.11e-06,0.0,0 STARLINK-3794,1 52631U 22052AK  23074.86034085  .00000811  00000-0  69005-4 0  9992,2 52631  53.2141 121.5556 0001963  74.4469 285.6739 15.08851533 46473,6917.845,95.437,541.068,538.352,0.0
52631.0,STARLINK-3794,PAYLOAD,2023-03-16 09:21:58,15.08841628,0.0001418,53.2144,119.1757,105.4644,254.6505,-4.8611e-05,-1.062e-05,0.0,0 STARLINK-3794,1 52631U 22052AK  23075.39026095 -.00001062  00000-0 -48611-4 0  9994,2 52631  53.2144 119.1757 0001418 105.4644 254.6505 15.08841628 46928,6917.875,95.437,540.721,538.759,0.0
52631.0,STARLINK-3794,PAYLOAD,2023-03-16 12:32:44,15.08841969,0.0001619,53.2142,118.5801,113.1726,246.9437,-5.4301e-05,-1.152e-05,0.0,0 STARLINK-3794,1 52631U 22052AK  23075.52274021 -.00001152  00000-0 -54301-4 0  9996,2 52631  53.2142 118.5801 0001619 113.1726 246.9437 15.08841969 46576,6917.874,95.437,540.859,538.619,0.0
